H1 CPF  1  DLR 2022 12 11 13  8452 technosat            
H2  1704205 6203    42829 2022 12 11 00 00 00 2022 12 18 00 00 00    60 1 1  0 0 0
H9
10 0 59928  50400.000000  0        946118.643       6434076.794       2481620.051
10 0 59928  50460.000000  0       1058181.680       6566332.115       2056477.224
10 0 59928  50520.000000  0       1166794.136       6669810.551       1622561.503
10 0 59928  50580.000000  0       1271243.650       6744114.114       1181725.640
10 0 59928  50640.000000  0       1370833.100       6788976.258        735851.217
10 0 59928  50700.000000  0       1464884.793       6804262.828        286840.323
10 0 59928  50760.000000  0       1552744.544       6789972.291       -163392.913
10 0 59928  50820.000000  0       1633785.588       6746235.312       -612930.769
10 0 59928  50880.000000  0       1707412.390       6673313.715      -1059860.372
10 0 59928  50940.000000  0       1773064.281       6571598.810      -1502282.082
10 0 59928  51000.000000  0       1830218.915       6441609.108      -1938317.801
10 0 59928  51060.000000  0       1878395.522       6283987.410      -2366119.148
10 0 59928  51120.000000  0       1917157.928       6099497.322      -2783875.444
10 0 59928  51180.000000  0       1946117.335       5889019.192      -3189821.488
10 0 59928  51240.000000  0       1964934.843       5653545.513      -3582245.073
10 0 59928  51300.000000  0       1973323.716       5394175.795      -3959494.176
10 0 59928  51360.000000  0       1971051.342       5112110.989      -4319983.792
10 0 59928  51420.000000  0       1957940.893       4808647.516      -4662202.400
10 0 59928  51480.000000  0       1933872.702       4485170.931      -4984718.038
10 0 59928  51540.000000  0       1898785.354       4143149.275      -5286183.972
10 0 59928  51600.000000  0       1852676.494       3784126.174      -5565343.984
10 0 59928  51660.000000  0       1795603.314       3409713.617      -5821037.290
10 0 59928  51720.000000  0       1727682.704       3021584.497      -6052202.939
10 0 59928  51780.000000  0       1649091.130       2621465.021      -6257883.771
10 0 59928  51840.000000  0       1560064.219       2211126.977      -6437229.919
10 0 59928  51900.000000  0       1460896.090       1792379.961      -6589501.875
10 0 59928  51960.000000  0       1351938.410       1367063.500      -6714073.215
10 0 59928  52020.000000  0       1233599.122        937039.054      -6810432.843
10 0 59928  52080.000000  0       1106340.891        504182.052      -6878186.737
10 0 59928  52140.000000  0        970679.300         70373.926      -6917059.324
10 0 59928  52200.000000  0        827180.768       -362505.881      -6926894.364
10 0 59928  52260.000000  0        676460.209       -792587.779      -6907655.372
10 0 59928  52320.000000  0        519178.473      -1218019.782      -6859425.647
10 0 59928  52380.000000  0        356039.567      -1636975.170      -6782407.882
10 0 59928  52440.000000  0        187787.641      -2047659.979      -6676923.423
10 0 59928  52500.000000  0         15203.713      -2448320.472      -6543411.194
10 0 59928  52560.000000  0       -160897.854      -2837250.524      -6382426.061
10 0 59928  52620.000000  0       -339673.044      -3212798.738      -6194636.684
10 0 59928  52680.000000  0       -520252.032      -3573375.281      -5980823.013
10 0 59928  52740.000000  0       -701743.221      -3917458.540      -5741873.416
10 0 59928  52800.000000  0       -883237.450      -4243601.539      -5478781.388
10 0 59928  52860.000000  0      -1063812.369      -4550438.114      -5192641.806
10 0 59928  52920.000000  0      -1242536.947      -4836688.761      -4884646.758
10 0 59928  52980.000000  0      -1418476.105      -5101166.148      -4556080.942
10 0 59928  53040.000000  0      -1590695.436      -5342780.261      -4208316.663
10 0 59928  53100.000000  0      -1758265.995      -5560543.149      -3842808.418
10 0 59928  53160.000000  0      -1920269.126      -5753573.244      -3461087.113
10 0 59928  53220.000000  0      -2075801.320      -5921099.245      -3064753.926
10 0 59928  53280.000000  0      -2223979.069      -6062463.537      -2655473.811
10 0 59928  53340.000000  0      -2363943.693      -6177125.142      -2234968.678
10 0 59928  53400.000000  0      -2494866.107      -6264662.144      -1805010.241
10 0 59928  53460.000000  0      -2615951.501      -6324773.583      -1367412.592
10 0 59928  53520.000000  0      -2726443.911      -6357280.777       -924024.504
10 0 59928  53580.000000  0      -2825630.635      -6362128.041       -476721.522
10 0 59928  53640.000000  0      -2912846.459      -6339382.807        -27397.909
10 0 59928  53700.000000  0      -2987477.678      -6289235.172        422041.526
10 0 59928  53760.000000  0      -3048965.891      -6211996.856        869689.692
10 0 59928  53820.000000  0      -3096811.547      -6108099.579       1313645.524
10 0 59928  53880.000000  0      -3130577.198      -5978092.832       1752022.306
10 0 59928  53940.000000  0      -3149890.455      -5822641.058       2182955.916
10 0 59928  54000.000000  0      -3154446.619      -5642520.299       2604612.967
10 0 59928  54060.000000  0      -3144010.969      -5438614.323       3015198.817
10 0 59928  54120.000000  0      -3118420.694      -5211910.233       3412965.400
10 0 59928  54180.000000  0      -3077586.472      -4963493.603       3796218.832
10 0 59928  54240.000000  0      -3021493.675      -4694543.161       4163326.774
10 0 59928  54300.000000  0      -2950203.206      -4406325.038       4512725.493
10 0 59928  54360.000000  0      -2863851.989      -4100186.634       4842926.597
10 0 59928  54420.000000  0      -2762653.046      -3777550.140       5152523.447
10 0 59928  54480.000000  0      -2646895.139      -3439905.699       5440197.176
10 0 59928  54540.000000  0      -2516942.040      -3088804.358       5704722.236
10 0 59928  54600.000000  0      -2373231.458      -2725850.800       5944971.576
10 0 59928  54660.000000  0      -2216273.583      -2352695.901       6159921.397
10 0 59928  54720.000000  0      -2046649.260      -1971029.117       6348655.499
10 0 59928  54780.000000  0      -1865007.796      -1582570.698       6510369.170
10 0 59928  54840.000000  0      -1672064.401      -1189063.743       6644372.555
10 0 59928  54900.000000  0      -1468597.310       -792266.221       6750093.413
10 0 59928  54960.000000  0      -1255444.656       -393943.087       6827079.373
10 0 59928  55020.000000  0      -1033501.045          4141.517       6874999.856
10 0 59928  55080.000000  0       -803713.797        400232.137       6893647.561
10 0 59928  55140.000000  0       -567078.876        792589.839       6882939.394
10 0 59928  55200.000000  0       -324636.541       1179499.911       6842916.861
10 0 59928  55260.000000  0        -77466.756       1559279.435       6773745.984
10 0 59928  55320.000000  0        173315.659       1930284.724       6675716.702
10 0 59928  55380.000000  0        426566.104       2290918.525       6549241.687
10 0 59928  55440.000000  0        681115.418       2639636.942       6394854.731
10 0 59928  55500.000000  0        935775.302       2974956.189       6213208.671
10 0 59928  55560.000000  0       1189343.888       3295459.077       6005072.784
10 0 59928  55620.000000  0       1440611.439       3599801.202       5771329.664
10 0 59928  55680.000000  0       1688366.153       3886716.791       5512971.629
10 0 59928  55740.000000  0       1931400.078       4155024.215       5231096.667
10 0 59928  55800.000000  0       2168515.125       4403631.135       4926903.858
10 0 59928  55860.000000  0       2398529.050       4631539.175       4601688.269
10 0 59928  55920.000000  0       2620281.391       4837848.105       4256835.469
10 0 59928  55980.000000  0       2832639.357       5021759.598       3893815.667
10 0 59928  56040.000000  0       3034503.658       5182580.540       3514177.526
10 0 59928  56100.000000  0       3224814.352       5319726.032       3119541.554
10 0 59928  56160.000000  0       3402556.553       5432721.793       2711592.884
10 0 59928  56220.000000  0       3566765.864       5521205.771       2292073.702
10 0 59928  56280.000000  0       3716533.496       5584929.174       1862775.629
10 0 59928  56340.000000  0       3851011.182       5623757.113       1425531.898
10 0 59928  56400.000000  0       3969415.857       5637668.781        982209.232
10 0 59928  56460.000000  0       4071034.052       5626756.892        534699.437
10 0 59928  56520.000000  0       4155225.895       5591226.449         84910.980
10 0 59928  56580.000000  0       4221428.748       5531393.045       -365239.412
10 0 59928  56640.000000  0       4269160.484       5447680.673       -813835.193
10 0 59928  56700.000000  0       4298022.391       5340618.983      -1258968.445
10 0 59928  56760.000000  0       4307701.615       5210840.014      -1698748.263
10 0 59928  56820.000000  0       4297973.168       5059074.444      -2131308.994
10 0 59928  56880.000000  0       4268701.507       4886147.417      -2554818.329
10 0 59928  56940.000000  0       4219841.639       4692973.913      -2967485.220
10 0 59928  57000.000000  0       4151439.754       4480553.698      -3367567.524
10 0 59928  57060.000000  0       4063633.411       4249965.907      -3753379.320
10 0 59928  57120.000000  0       3956651.326       4002363.360      -4123297.873
10 0 59928  57180.000000  0       3830812.746       3738966.627      -4475770.336
10 0 59928  57240.000000  0       3686526.373       3461057.788      -4809320.096
10 0 59928  57300.000000  0       3524288.840       3169974.007      -5122552.708
10 0 59928  57360.000000  0       3344682.776       2867100.945      -5414161.420
10 0 59928  57420.000000  0       3148374.493       2553866.031      -5682932.238
10 0 59928  57480.000000  0       2936111.356       2231731.673      -5927748.601
10 0 59928  57540.000000  0       2708718.739       1902188.363      -6147595.636
99
